ORBCOMM-X [-]           
1 21576U 91050C   24036.93402794  .00000470  00000+0  15555-3 0  9993
2 21576  98.4069 106.2151 0002690 238.2698 121.8230 14.42352582710416
ORBCOMM FM01 [-]        
1 23545U 95017A   24036.89030209  .00008710  00000+0  12057-2 0  9999
2 23545  69.9665 222.2831 0006031 325.1336  34.9417 14.78298078538733
ORBCOMM FM02 [-]        
1 23546U 95017B   24036.89269225  .00005430  00000+0  76242-3 0  9995
2 23546  69.9683 241.5300 0008131 325.4917  34.5702 14.77932945538381
ORBCOMM FM08 [-]        
1 25112U 97084A   24036.63502385  .00001889  00000+0  61417-3 0  9993
2 25112  45.0138 228.9058 0007186 253.1869 106.8193 14.41939204369467
ORBCOMM FM10 [-]        
1 25113U 97084B   24036.63676121  .00001906  00000+0  62036-3 0  9992
2 25113  45.0150 230.6850 0005146 221.5543 138.4916 14.41866586544612
ORBCOMM FM11 [+]        
1 25114U 97084C   24036.64778776  .00001947  00000+0  63413-3 0  9998
2 25114  45.0132 230.6275 0005870 222.5480 137.4916 14.41753483369580
ORBCOMM FM12 [-]        
1 25115U 97084D   24036.53622682  .00001815  00000+0  59461-3 0  9993
2 25115  45.0143 230.8261 0005008 221.8254 138.2213 14.41730377369366
ORBCOMM FM09 [-]        
1 25116U 97084E   24036.82251383  .00001759  00000+0  57783-3 0  9994
2 25116  45.0144 230.1208 0006197 209.4293 150.6208 14.41698190369613
